IRIDIUM 166             
1 43570U 18061B   25215.42965809  .00000035  00000+0  55639-5 0  9993
2 43570  86.4004 189.5089 0002197  93.6554 266.4893 14.34217523367853
IRIDIUM 158             
1 43571U 18061C   25215.46771347  .00000047  00000+0  95792-5 0  9997
2 43571  86.4003 189.5029 0002124  84.4892 275.6546 14.34217617367828
IRIDIUM 165             
1 43572U 18061D   25215.42331585  .00000056  00000+0  12819-4 0  9998
2 43572  86.4005 189.5615 0002327  90.2096 269.9366 14.34217597367843
IRIDIUM 155             
1 43573U 18061E   25215.45502735 -.00000017  00000+0 -13107-4 0  9999
2 43573  86.4006 189.4338 0001835  87.4962 272.6444 14.34217498367814
IRIDIUM 154             
1 43574U 18061F   25215.43599956  .00000043  00000+0  81284-5 0  9998
2 43574  86.4005 189.5590 0002286  87.5023 272.6434 14.34217024367864
IRIDIUM 163             
1 43575U 18061G   25215.48674703  .00000260  00000+0  85919-4 0  9997
2 43575  86.4003 189.4633 0002250  82.7938 277.3514 14.34219698367841
IRIDIUM 156             
1 43576U 18061H   25215.39160180  .00000204  00000+0  65688-4 0  9996
2 43576  86.4004 189.5099 0002001  92.5635 267.5790 14.34218415367828
IRIDIUM 164             
1 43577U 18061J   25215.44234364 -.00000001  00000+0 -75720-5 0  9995
2 43577  86.4008 189.5242 0002268  91.8371 268.3085 14.34217125367875
